QIANFAN-57              
1 62787U 25016C   25298.53515353  .00000056  00000+0  67945-4 0  9995
2 62787  88.9748 108.1747 0000988  76.9603 283.1658 13.50976429 40698
QIANFAN-58              
1 62788U 25016D   25298.50632690  .00000072  00000+0  92721-4 0  9995
2 62788  88.9718 108.0242 0015368 119.4895 240.7792 13.50976085 40730
QIANFAN-59              
1 62789U 25016E   25298.53100376  .00000052  00000+0  61996-4 0  9998
2 62789  88.9741 108.0839 0015701 122.9337 237.3327 13.50975427 40735
QIANFAN-60              
1 62790U 25016F   25298.48999500  .00000049  00000+0  56625-4 0  9998
2 62790  88.9722 108.0687 0017277 120.1200 240.1666 13.50972127 40716
QIANFAN-61              
1 62791U 25016G   25298.44868475  .00000055  00000+0  65943-4 0  9991
2 62791  88.9790 108.2031 0016223 119.4912 240.7860 13.50975738 40722
QIANFAN-62              
1 62792U 25016H   25298.45297427  .00000053  00000+0  63183-4 0  9998
2 62792  88.9736 108.0972 0017589 120.0624 240.2274 13.50969646 40713
QIANFAN-63              
1 62793U 25016J   25298.47754124  .00000061  00000+0  75121-4 0  9997
2 62793  88.9743 108.0429 0017572 124.9170 235.3635 13.50972648 40756
QIANFAN-64              
1 62794U 25016K   25298.51866480  .00000058  00000+0  70538-4 0  9995
2 62794  88.9730 108.0193 0015621 117.9865 242.2869 13.50974328 40750
